[{"OBJECT_NAME":"STARLINK-32247","OBJECT_ID":"2024-144X","EPOCH":"2026-03-09T16:29:57.257664","MEAN_MOTION":15.30186893,"ECCENTRICITY":9.306e-5,"INCLINATION":53.1601,"RA_OF_ASC_NODE":206.716,"ARG_OF_PERICENTER":97.4978,"MEAN_ANOMALY":262.6128,"EPHEMERIS_TYPE":0,"CLASSIFICATION_TYPE":"U","NORAD_CAT_ID":60446,"ELEMENT_SET_NO":999,"REV_AT_EPOCH":8949,"BSTAR":-1.9339608e-5,"MEAN_MOTION_DOT":-9.31e-6,"MEAN_MOTION_DDOT":0},{"OBJECT_NAME":"SL-8 R\/B","OBJECT_ID":"1994-061B","EPOCH":"2026-03-09T22:11:39.346944","MEAN_MOTION":14.28263907,"ECCENTRICITY":0.05977746,"INCLINATION":82.9619,"RA_OF_ASC_NODE":21.337,"ARG_OF_PERICENTER":318.8014,"MEAN_ANOMALY":36.9463,"EPHEMERIS_TYPE":0,"CLASSIFICATION_TYPE":"U","NORAD_CAT_ID":23279,"ELEMENT_SET_NO":999,"REV_AT_EPOCH":57143,"BSTAR":0.00083232798,"MEAN_MOTION_DOT":0.00016203,"MEAN_MOTION_DDOT":0}]
